CSS (TIANHE)            
1 48274U 21035A   26200.18885985  .00010864  00000+0  14396-3 0  9992
2 48274  41.4684 127.6260 0002038 305.5531  54.5117 15.58190352298161
