{"fetched_at":"2026-07-19T17:31:18.762Z","source":"https://celestrak.org/NORAD/elements/gp.php?GROUP=stations&FORMAT=JSON","constellation":"tiangong","records":[{"OBJECT_NAME":"CSS (TIANHE)","OBJECT_ID":"2021-035A","EPOCH":"2026-07-19T04:31:57.491040","CLASSIFICATION_TYPE":"U","MEAN_MOTION":15.58190352,"ECCENTRICITY":0.00020384,"INCLINATION":41.4684,"RA_OF_ASC_NODE":127.626,"ARG_OF_PERICENTER":305.5531,"MEAN_ANOMALY":54.5117,"EPHEMERIS_TYPE":0,"NORAD_CAT_ID":48274,"ELEMENT_SET_NO":999,"REV_AT_EPOCH":29816,"BSTAR":0.00014395589,"MEAN_MOTION_DOT":0.00010864,"MEAN_MOTION_DDOT":0}]}
